OBJECT_NAME,OBJECT_ID,EPOCH,MEAN_MOTION,ECCENTRICITY,INCLINATION,RA_OF_ASC_NODE,ARG_OF_PERICENTER,MEAN_ANOMALY,EPHEMERIS_TYPE,CLASSIFICATION_TYPE,NORAD_CAT_ID,ELEMENT_SET_NO,REV_AT_EPOCH,BSTAR,MEAN_MOTION_DOT,MEAN_MOTION_DDOT
COSMOS 2058,1990-010A,2026-07-18T04:07:00.712992,15.12166780,.00081499,82.4674,278.7964,237.3334,122.7111,0,U,20465,999,96195,.10672085E-3,.187E-4,0
SL-14 R/B,1990-010B,2026-07-18T06:12:52.246656,14.83664002,.00185561,82.5037,144.7658,226.4156,133.5519,0,U,20466,999,94784,.20109442E-4,.19E-5,0
SL-14 R/B,1990-018B,2026-07-18T03:10:42.470400,14.82235111,.00167992,82.5215,101.1848,27.6672,332.5433,0,U,20511,999,94190,.22128129E-4,.201E-5,0
HST,1990-037B,2026-07-18T07:16:34.909248,15.31079190,.00021839,28.4720,227.8514,134.1462,225.9314,0,U,20580,999,79334,.93085705E-4,.3106E-4,0
SL-16 R/B,1990-046B,2026-07-17T23:33:32.863104,14.15026474,.00123362,70.9990,24.2710,109.4019,250.8439,0,U,20625,999,86682,.17602775E-3,.294E-5,0
COSMOS 2084,1990-055A,2026-07-18T03:10:53.517504,15.06229440,.00084448,62.7879,250.4600,321.0083,39.0408,0,U,20663,999,95596,.62252661E-4,.714E-5,0
SL-6 R/B(2),1990-055D,2026-07-18T03:56:41.523072,15.04095075,.00455964,62.7806,169.9555,9.3973,350.7969,0,U,20666,999,95781,.83934064E-4,.983E-5,0
SL-8 R/B,1990-078B,2026-07-18T06:58:27.475392,14.93627013,.03431484,82.9035,133.5086,292.9981,63.5387,0,U,20775,999,82876,.21874343E-3,.7723E-4,0
SL-8 R/B,1991-006B,2026-07-18T03:53:26.448288,13.77509652,.00232677,82.9405,72.9882,32.5199,81.3106,0,U,21088,999,78203,.65241372E-4,.8E-6,0
OKEAN-3,1991-039A,2026-07-18T07:30:39.314592,15.05445294,.00126859,82.5147,210.1943,242.6649,117.3287,0,U,21397,999,88468,.11930893E-3,.1743E-4,0
COSMOS 2151,1991-042A,2026-07-18T06:27:42.081120,15.00518004,.00116705,82.4983,317.6844,344.8485,15.2387,0,U,21422,999,88277,.73393519E-4,.953E-5,0
SL-14 R/B,1991-042B,2026-07-18T03:29:37.686912,14.81918943,.00172441,82.4931,97.8648,167.2849,192.8803,0,U,21423,999,87239,.19120451E-4,.175E-5,0
ERS-1,1991-050A,2026-07-18T07:17:51.473472,14.39534846,.00320938,98.7796,220.7620,172.6051,187.5616,0,U,21574,999,83452,.7388501E-4,.186E-5,0
ARIANE 40 R/B,1991-050F,2026-07-18T02:44:39.363936,14.42972778,.00040393,98.1861,246.3240,54.9770,305.1799,0,U,21610,999,83780,.43221953E-4,.103E-5,0
INTERCOSMOS 25,1991-086A,2026-07-18T07:29:52.828800,12.12241568,.14847344,82.6003,230.9747,195.1985,159.9448,0,U,21819,999,51251,.3906575E-4,.214E-5,0
SL-8 R/B,1992-008B,2026-07-18T00:46:36.952032,13.75984242,.00357975,82.9274,170.8541,128.8987,302.3392,0,U,21876,999,72734,.82238192E-4,.96E-6,0
SL-8 R/B,1992-020B,2026-07-18T02:59:36.340224,13.75549993,.00278529,82.9278,56.8734,294.9881,180.6875,0,U,21938,999,71906,-.21417387E-4,-.6E-7,0
USA 81,1992-023A,2026-07-18T01:57:10.445760,14.32405399,.00018572,85.0049,56.1718,64.9732,295.1653,0,U,21949,999,11345,.25397307E-4,.89E-6,0
COSMOS 2219,1992-076A,2026-07-18T04:09:50.369760,14.14107606,.00184391,71.0610,105.2980,353.0297,7.0566,0,U,22219,999,73682,-.10648961E-3,-.25E-5,0
SL-16 R/B,1992-076B,2026-07-18T05:23:59.528256,14.16878066,.00150344,71.0002,273.3993,258.3557,113.6153,0,U,22220,999,74032,.4614044E-5,-.39E-6,0
COSMOS 2221,1992-080A,2026-07-18T07:06:41.849280,14.96608683,.0015866,82.5048,153.9595,110.7403,249.5521,0,U,22236,999,80032,.70005963E-4,.826E-5,0
SL-16 R/B,1992-093B,2026-07-18T02:59:56.645952,14.15464648,.00021813,71.0215,90.4452,126.0636,234.0689,0,U,22285,999,73161,-.1091731E-3,-.261E-5,0
COSMOS 2228,1992-094A,2026-07-18T05:20:49.596864,14.97680583,.00165395,82.5187,112.3154,218.2564,141.7486,0,U,22286,999,79559,.68605242E-4,.832E-5,0
SL-16 R/B,1993-016B,2026-07-18T05:59:31.596000,14.15314391,.00087053,71.0087,300.9654,132.4991,227.6869,0,U,22566,999,72064,.17444067E-3,.292E-5,0
COSMOS 2242,1993-024A,2026-07-18T06:19:13.391616,14.96989760,.00148438,82.5200,141.8116,221.4152,138.5947,0,U,22626,999,79992,.71731588E-4,.853E-5,0
SL-16 R/B,1993-059B,2026-07-18T02:55:18.460416,14.17249470,.00168195,70.9901,96.0693,4.2254,355.9008,0,U,22803,999,69801,.56509137E-4,.66E-6,0
ARIANE 40 R/B,1993-061H,2026-07-18T03:20:23.239968,14.32919188,.00095366,98.4804,265.3510,255.9893,104.0232,0,U,22830,999,71278,.39214229E-4,.64E-6,0
COSMOS 2278,1994-023A,2026-07-18T03:39:59.887872,14.14393871,.0009486,71.0519,262.1379,201.0959,158.9773,0,U,23087,999,66325,.83059407E-4,.112E-5,0
SL-16 R/B,1994-023B,2026-07-18T06:46:12.231264,14.15025886,.00013312,70.9988,156.6290,116.1132,244.0127,0,U,23088,999,66456,.1566525E-3,.256E-5,0
SL-16 R/B,1994-074B,2026-07-18T01:09:45.227232,14.79525736,.0007371,97.6986,224.4822,145.9405,241.7137,0,U,23343,999,70652,.29450448E-4,.171E-5,0
