COSMOS 2058             
1 20465U 90010A   26199.17153603  .00001870  00000+0  10672-3 0  9994
2 20465  82.4674 278.7964 0008149 237.3334 122.7111 15.12166780961952
SL-14 R/B               
1 20466U 90010B   26199.25893804  .00000190  00000+0  20109-4 0  9999
2 20466  82.5037 144.7658 0018556 226.4156 133.5519 14.83664002947844
SL-14 R/B               
1 20511U 90018B   26199.13243600  .00000201  00000+0  22128-4 0  9994
2 20511  82.5215 101.1848 0016799  27.6672 332.5433 14.82235111941903
HST                     
1 20580U 90037B   26199.30318182  .00003106  00000+0  93086-4 0  9996
2 20580  28.4720 227.8514 0002183 134.1462 225.9314 15.31079190793342
SL-16 R/B               
1 20625U 90046B   26198.98163036  .00000294  00000+0  17603-3 0  9990
2 20625  70.9990  24.2710 0012336 109.4019 250.8439 14.15026474866821
COSMOS 2084             
1 20663U 90055A   26199.13256386  .00000714  00000+0  62253-4 0  9990
2 20663  62.7879 250.4600 0008444 321.0083  39.0408 15.06229440955963
SL-6 R/B(2)             
1 20666U 90055D   26199.16436948  .00000983  00000+0  83934-4 0  9997
2 20666  62.7806 169.9555 0045596   9.3973 350.7969 15.04095075957816
SL-8 R/B                
1 20775U 90078B   26199.29059578  .00007723  00000+0  21874-3 0  9990
2 20775  82.9035 133.5086 0343148 292.9981  63.5387 14.93627013828768
SL-8 R/B                
1 21088U 91006B   26199.16211167  .00000080  00000+0  65241-4 0  9996
2 21088  82.9405  72.9882 0023267  32.5199  81.3106 13.77509652782038
OKEAN-3                 
1 21397U 91039A   26199.31295503  .00001743  00000+0  11931-3 0  9991
2 21397  82.5147 210.1943 0012685 242.6649 117.3287 15.05445294884688
COSMOS 2151             
1 21422U 91042A   26199.26923705  .00000953  00000+0  73394-4 0  9994
2 21422  82.4983 317.6844 0011670 344.8485  15.2387 15.00518004882773
SL-14 R/B               
1 21423U 91042B   26199.14557508  .00000175  00000+0  19120-4 0  9999
2 21423  82.4931  97.8648 0017244 167.2849 192.8803 14.81918943872396
ERS-1                   
1 21574U 91050A   26199.30406798  .00000186  00000+0  73885-4 0  9997
2 21574  98.7796 220.7620 0032093 172.6051 187.5616 14.39534846834528
ARIANE 40 R/B           
1 21610U 91050F   26199.11434449  .00000103  00000+0  43222-4 0  9992
2 21610  98.1861 246.3240 0004039  54.9770 305.1799 14.42972778837805
INTERCOSMOS 25          
1 21819U 91086A   26199.31241700  .00000214  00000+0  39066-4 0  9994
2 21819  82.6003 230.9747 1484734 195.1985 159.9448 12.12241568512519
SL-8 R/B                
1 21876U 92008B   26199.03237213  .00000096  00000+0  82238-4 0  9992
2 21876  82.9274 170.8541 0035797 128.8987 302.3392 13.75984242727348
SL-8 R/B                
1 21938U 92020B   26199.12472616 -.00000006  00000+0 -21417-4 0  9998
2 21938  82.9278  56.8734 0027852 294.9881 180.6875 13.75549993719062
USA 81                  
1 21949U 92023A   26199.08137090  .00000089  00000+0  25397-4 0  9992
2 21949  85.0049  56.1718 0001857  64.9732 295.1653 14.32405399113458
COSMOS 2219             
1 22219U 92076A   26199.17349965 -.00000250  00000+0 -10649-3 0  9992
2 22219  71.0610 105.2980 0018439 353.0297   7.0566 14.14107606736822
SL-16 R/B               
1 22220U 92076B   26199.22499454 -.00000039  00000+0  46140-5 0  9990
2 22220  71.0002 273.3993 0015034 258.3557 113.6153 14.16878066740327
COSMOS 2221             
1 22236U 92080A   26199.29631770  .00000826  00000+0  70006-4 0  9998
2 22236  82.5048 153.9595 0015866 110.7403 249.5521 14.96608683800325
SL-16 R/B               
1 22285U 92093B   26199.12496118 -.00000261  00000+0 -10917-3 0  9992
2 22285  71.0215  90.4452 0002181 126.0636 234.0689 14.15464648731610
COSMOS 2228             
1 22286U 92094A   26199.22279626  .00000832  00000+0  68605-4 0  9998
2 22286  82.5187 112.3154 0016539 218.2564 141.7486 14.97680583795599
SL-16 R/B               
1 22566U 93016B   26199.24967125  .00000292  00000+0  17444-3 0  9998
2 22566  71.0087 300.9654 0008705 132.4991 227.6869 14.15314391720643
COSMOS 2242             
1 22626U 93024A   26199.26334944  .00000853  00000+0  71732-4 0  9997
2 22626  82.5200 141.8116 0014843 221.4152 138.5947 14.96989760799928
SL-16 R/B               
1 22803U 93059B   26199.12174144  .00000066  00000+0  56509-4 0  9992
2 22803  70.9901  96.0693 0016819   4.2254 355.9008 14.17249470698011
ARIANE 40 R/B           
1 22830U 93061H   26199.13915787  .00000064  00000+0  39214-4 0  9994
2 22830  98.4804 265.3510 0009536 255.9893 104.0232 14.32919188712789
COSMOS 2278             
1 23087U 94023A   26199.15277648  .00000112  00000+0  83059-4 0  9997
2 23087  71.0519 262.1379 0009486 201.0959 158.9773 14.14393871663251
SL-16 R/B               
1 23088U 94023B   26199.28208601  .00000256  00000+0  15665-3 0  9991
2 23088  70.9988 156.6290 0001331 116.1132 244.0127 14.15025886664563
SL-16 R/B               
1 23343U 94074B   26199.04844013  .00000171  00000+0  29450-4 0  9992
2 23343  97.6986 224.4822 0007371 145.9405 241.7137 14.79525736706526
